NORAD_CAT_ID,OBJECT_NAME,OBJECT_TYPE,EPOCH,MEAN_MOTION,ECCENTRICITY,INCLINATION,RA_OF_ASC_NODE,ARG_OF_PERICENTER,MEAN_ANOMALY,BSTAR,MEAN_MOTION_DOT,MEAN_MOTION_DDOT,TLE_LINE0,TLE_LINE1,TLE_LINE2,SEMIMAJOR_AXIS,PERIOD,APOGEE,PERIGEE,DECAYED
52342.0,STARLINK-3850,PAYLOAD,2024-08-01 23:00:04,15.08863714,0.0002761,53.2161,304.1953,69.4127,290.7161,0.00055213,8.516e-05,0.0,0 STARLINK-3850,1 52342U 22045M   24214.95838610  .00008516  00000-0  55213-3 0  9991,2 52342  53.2161 304.1953 0002761  69.4127 290.7161 15.08863714127500,6917.808,95.436,541.583,537.763,0.0
52342.0,STARLINK-3850,PAYLOAD,2024-08-02 13:18:33,15.0882663,0.0001599,53.2159,301.524,73.3357,286.781,0.00091869,0.00014358,0.0,0 STARLINK-3850,1 52342U 22045M   24215.55455036  .00014358  00000-0  91869-3 0  9993,2 52342  53.2159 301.5240 0001599  73.3357 286.7810 15.08826630127595,6917.921,95.438,540.892,538.68,0.0
52342.0,STARLINK-3850,PAYLOAD,2024-08-03 14:44:43,15.08860698,0.000156,53.2154,296.7681,77.8537,282.263,0.0013706,0.00021605,0.0,0 STARLINK-3850,1 52342U 22045M   24216.61438971  .00021605  00000-0  13706-2 0  9996,2 52342  53.2154 296.7681 0001560  77.8537 282.2630 15.08860698127752,6917.817,95.436,540.761,538.603,0.0
52342.0,STARLINK-3850,PAYLOAD,2024-08-04 05:03:11,15.08848967,0.0002408,53.2148,294.0919,83.7576,276.369,0.001039,0.00016291,0.0,0 STARLINK-3850,1 52342U 22045M   24217.21055481  .00016291  00000-0  10390-2 0  9995,2 52342  53.2148 294.0919 0002408  83.7576 276.3690 15.08848967127846,6917.853,95.437,541.384,538.052,0.0
52342.0,STARLINK-3850,PAYLOAD,2024-08-04 14:35:30,15.08851946,0.0001747,53.2159,292.3072,93.781,266.3382,0.0013029,0.00020515,0.0,0 STARLINK-3850,1 52342U 22045M   24217.60799243  .00020515  00000-0  13029-2 0  9995,2 52342  53.2159 292.3072 0001747  93.7810 266.3382 15.08851946127901,6917.844,95.437,540.917,538.5,0.0
52342.0,STARLINK-3850,PAYLOAD,2024-08-04 22:32:25,15.08857757,0.0001592,53.216,290.8164,95.2116,264.9057,0.00099118,0.00015529,0.0,0 STARLINK-3850,1 52342U 22045M   24217.93918946  .00015529  00000-0  99118-3 0  9997,2 52342  53.2160 290.8164 0001592  95.2116 264.9057 15.08857757127956,6917.826,95.436,540.792,538.59,0.0
52342.0,STARLINK-3850,PAYLOAD,2024-08-05 11:15:30,15.08863005,0.0001671,53.2156,288.4367,102.9013,257.2166,0.00060172,9.307e-05,0.0,0 STARLINK-3850,1 52342U 22045M   24218.46910310  .00009307  00000-0  60172-3 0  9998,2 52342  53.2156 288.4367 0001671 102.9013 257.2166 15.08863005128038,6917.81,95.436,540.831,538.519,0.0
52342.0,STARLINK-3850,PAYLOAD,2024-08-06 14:17:05,15.08822348,0.0001383,53.2155,283.3845,72.6964,287.418,-0.00017588,-3.085e-05,0.0,0 STARLINK-3850,1 52342U 22045M   24219.59519911 -.00003085  00000-0 -17588-3 0  9997,2 52342  53.2155 283.3845 0001383  72.6964 287.4180 15.08822348128205,6917.934,95.439,540.756,538.843,0.0
52342.0,STARLINK-3850,PAYLOAD,2024-08-07 10:57:05,15.08859944,0.0001446,53.2155,279.5206,64.3114,295.8027,0.001317,0.00020746,0.0,0 STARLINK-3850,1 52342U 22045M   24220.45631846  .00020746  00000-0  13170-2 0  9999,2 52342  53.2155 279.5206 0001446  64.3114 295.8027 15.08859944128337,6917.819,95.436,540.685,538.684,0.0
52342.0,STARLINK-3850,PAYLOAD,2024-08-08 10:47:52,15.08863303,0.0001456,53.2156,275.0592,77.1353,282.9801,0.0010571,0.00016586,0.0,0 STARLINK-3850,1 52342U 22045M   24221.44991090  .00016586  00000-0  10571-2 0  9998,2 52342  53.2156 275.0592 0001456  77.1353 282.9801 15.08863303128482,6917.809,95.436,540.681,538.667,0.0
52342.0,STARLINK-3850,PAYLOAD,2024-08-09 12:14:02,15.08841556,0.0001428,53.2153,270.3008,88.7101,271.4055,0.00011248,1.503e-05,0.0,0 STARLINK-3850,1 52342U 22045M   24222.50975362  .00001503  00000-0  11248-3 0  9996,2 52342  53.2153 270.3008 0001428  88.7101 271.4055 15.08841556128645,6917.876,95.437,540.729,538.753,0.0
52342.0,STARLINK-3850,PAYLOAD,2024-08-09 20:10:58,15.08835998,0.0001447,53.2155,268.8143,95.0787,265.037,4.0464e-05,3.56e-06,0.0,0 STARLINK-3850,1 52342U 22045M   24222.84095604  .00000356  00000-0  40464-4 0  9993,2 52342  53.2155 268.8143 0001447  95.0787 265.0370 15.08835998128698,6917.893,95.438,540.759,538.757,0.0
52342.0,STARLINK-3850,PAYLOAD,2024-08-10 12:04:49,15.08848133,0.0001495,53.2148,265.8396,89.5748,270.5416,0.00068791,0.00010679,0.0,0 STARLINK-3850,1 52342U 22045M   24223.50335429  .00010679  00000-0  68791-3 0  9990,2 52342  53.2148 265.8396 0001495  89.5748 270.5416 15.08848133128793,6917.856,95.437,540.755,538.686,0.0
52342.0,STARLINK-3850,PAYLOAD,2024-08-11 02:23:18,15.0883605,0.0001731,53.2144,263.1641,85.3863,274.7327,0.0001286,1.759e-05,0.0,0 STARLINK-3850,1 52342U 22045M   24224.09951996  .00001759  00000-0  12860-3 0  9993,2 52342  53.2144 263.1641 0001731  85.3863 274.7327 15.08836050128880,6917.892,95.438,540.955,538.56,0.0
52342.0,STARLINK-3850,PAYLOAD,2024-08-11 19:52:32,15.08844764,0.0001668,53.2145,259.8919,89.521,270.5973,0.0002857,4.262e-05,0.0,0 STARLINK-3850,1 52342U 22045M   24224.82815900  .00004262  00000-0  28570-3 0  9995,2 52342  53.2145 259.8919 0001668  89.5210 270.5973 15.08844764128996,6917.866,95.437,540.885,538.577,0.0
52342.0,STARLINK-3850,PAYLOAD,2024-08-12 08:35:37,15.08862785,0.0001792,53.2142,257.5122,92.1264,267.9933,0.00081301,0.00012683,0.0,0 STARLINK-3850,1 52342U 22045M   24225.35807331  .00012683  00000-0  81301-3 0  9990,2 52342  53.2142 257.5122 0001792  92.1264 267.9933 15.08862785129070,6917.811,95.436,540.915,538.436,0.0
52342.0,STARLINK-3850,PAYLOAD,2024-08-12 13:21:46,15.08891638,0.0001779,53.2153,256.6202,92.0746,268.045,0.0018348,0.00029075,0.0,0 STARLINK-3850,1 52342U 22045M   24225.55678640  .00029075  00000-0  18348-2 0  9994,2 52342  53.2153 256.6202 0001779  92.0746 268.0450 15.08891638129109,6917.723,95.434,540.818,538.357,0.0
52342.0,STARLINK-3850,PAYLOAD,2024-08-12 19:43:19,15.08864644,0.0002308,53.2159,255.4301,80.4839,279.6414,0.0006963,0.00010818,0.0,0 STARLINK-3850,1 52342U 22045M   24225.82175156  .00010818  00000-0  69630-3 0  9994,2 52342  53.2159 255.4301 0002308  80.4839 279.6414 15.08864644129144,6917.805,95.436,541.267,538.073,0.0
52342.0,STARLINK-3850,PAYLOAD,2024-08-13 05:15:37,15.08843978,0.0001993,53.2145,253.6464,86.2311,273.8909,0.0003052,4.573e-05,0.0,0 STARLINK-3850,1 52342U 22045M   24226.21918966  .00004573  00000-0  30520-3 0  9999,2 52342  53.2145 253.6464 0001993  86.2311 273.8909 15.08843978129206,6917.868,95.437,541.112,538.354,0.0
52342.0,STARLINK-3850,PAYLOAD,2024-08-13 11:37:10,15.08845073,0.0001813,53.2158,252.4579,77.7431,282.3764,9.8809e-05,1.285e-05,0.0,0 STARLINK-3850,1 52342U 22045M   24226.48414915  .00001285  00000-0  98809-4 0  9995,2 52342  53.2158 252.4579 0001813  77.7431 282.3764 15.08845073129249,6917.865,95.437,540.984,538.476,0.0
52342.0,STARLINK-3850,PAYLOAD,2024-08-14 05:06:25,15.08821393,0.0001848,53.2153,249.1824,82.2798,277.8404,-0.0001044,-1.948e-05,0.0,0 STARLINK-3850,1 52342U 22045M   24227.21279991 -.00001948  00000-0 -10440-3 0  9992,2 52342  53.2153 249.1824 0001848  82.2798 277.8404 15.08821393129356,6917.937,95.439,541.081,538.524,0.0
52342.0,STARLINK-3850,PAYLOAD,2024-08-14 08:17:12,15.08824597,0.0001838,53.2145,248.5895,82.0491,278.0709,-0.00027841,-4.714e-05,0.0,0 STARLINK-3850,1 52342U 22045M   24227.34528106 -.00004714  00000-0 -27841-3 0  9998,2 52342  53.2145 248.5895 0001838  82.0491 278.0709 15.08824597129377,6917.927,95.439,541.064,538.521,0.0
52342.0,STARLINK-3850,PAYLOAD,2024-08-15 04:57:13,15.08828229,0.0001564,53.2144,244.7193,78.3825,281.7343,3.5465e-05,2.76e-06,0.0,0 STARLINK-3850,1 52342U 22045M   24228.20640597  .00000276  00000-0  35465-4 0  9992,2 52342  53.2144 244.7193 0001564  78.3825 281.7343 15.08828229129506,6917.916,95.438,540.863,538.699,0.0
52342.0,STARLINK-3850,PAYLOAD,2024-08-15 08:07:59,15.08832407,0.0001603,53.2144,244.132,76.4579,283.6592,0.00013233,1.818e-05,0.0,0 STARLINK-3850,1 52342U 22045M   24228.33888621  .00001818  00000-0  13233-3 0  9999,2 52342  53.2144 244.1320 0001603  76.4579 283.6592 15.08832407129523,6917.904,95.438,540.878,538.66,0.0
52342.0,STARLINK-3850,PAYLOAD,2024-08-15 17:40:18,15.08837145,0.0001587,53.2144,242.3474,76.1756,283.9412,0.00019035,2.742e-05,0.0,0 STARLINK-3850,1 52342U 22045M   24228.73632591  .00002742  00000-0  19035-3 0  9999,2 52342  53.2144 242.3474 0001587  76.1756 283.9412 15.08837145129582,6917.889,95.438,540.852,538.656,0.0
52342.0,STARLINK-3850,PAYLOAD,2024-08-16 04:48:00,15.08842543,0.0001571,53.2141,240.2659,77.5488,282.568,0.00026242,3.891e-05,0.0,0 STARLINK-3850,1 52342U 22045M   24229.20000524  .00003891  00000-0  26242-3 0  9991,2 52342  53.2141 240.2659 0001571  77.5488 282.5680 15.08842543129659,6917.873,95.437,540.824,538.651,0.0
52342.0,STARLINK-3850,PAYLOAD,2024-08-16 07:58:46,15.08849298,0.0001589,53.2143,239.6716,78.4786,281.6384,0.00037489,5.685e-05,0.0,0 STARLINK-3850,1 52342U 22045M   24229.33248363  .00005685  00000-0  37489-3 0  9998,2 52342  53.2143 239.6716 0001589  78.4786 281.6384 15.08849298129674,6917.852,95.437,540.816,538.618,0.0
52342.0,STARLINK-3850,PAYLOAD,2024-08-17 07:49:33,15.08839724,0.0001614,53.2137,235.21,76.0896,284.0276,-2.021e-05,-6.1e-06,0.0,0 STARLINK-3850,1 52342U 22045M   24230.32608369 -.00000610  00000-0 -20210-4 0  9995,2 52342  53.2137 235.2100 0001614  76.0896 284.0276 15.08839724129828,6917.881,95.438,540.863,538.63,0.0
52342.0,STARLINK-3850,PAYLOAD,2024-08-18 06:04:57,15.08836312,0.0001679,53.2139,231.0469,79.5769,280.5413,-5.4337e-05,-1.153e-05,0.0,0 STARLINK-3850,1 52342U 22045M   24231.25344509 -.00001153  00000-0 -54337-4 0  9991,2 52342  53.2139 231.0469 0001679  79.5769 280.5413 15.08836312129969,6917.892,95.438,540.918,538.595,0.0
52342.0,STARLINK-3850,PAYLOAD,2024-08-18 09:15:43,15.08840009,0.0001688,53.2147,230.4517,80.5219,279.5964,-1.2936e-05,-4.94e-06,0.0,0 STARLINK-3850,1 52342U 22045M   24231.38592362 -.00000494  00000-0 -12936-4 0  9993,2 52342  53.2147 230.4517 0001688  80.5219 279.5964 15.08840009129986,6917.88,95.438,540.913,538.578,0.0
